#dP2023  2 27  0  0  0.00000000      96 __u+U ITR00 EXT  IAC
## 2251  86400.00000000   900.00000000 60002 0.0000000000000
+  119   C06C07C08C09C10C11C12C13C14C16C19C20C21C22C23C24C25
+        C26C27C28C29C30C32C33C34C35C36C37C38C39C40C41C42C43
+        C44C45C46E01E02E03E04E05E07E08E09E10E11E12E14E15E18
+        E19E21E24E25E26E27E30E31E33E34E36G01G02G03G04G05G06
+        G07G08G09G10G11G12G13G14G15G16G17G18G19G20G21G22G23
+        G24G25G26G27G28G29G30G31G32J02J03J04R01R02R03R04R05
+        R07R08R09R11R12R13R14R15R16R17R18R19R20R21R22R24R25
++         9 11 11 10 11 11 10 11  9 10  8  8  9  8  9  8  8
++         9  9  9  8  7  9  8  9 17  9 10 10  9 10 10  9 10
++         9 10  8  8  8  8  7  8  9  8  8  7  8  8  7  7  8
++         8  7  8  7  7  7  7  7  8  8  8  8  7  7  8  7  8
++         7  9  8  8  8  8  9  7  7  8  7  7  8  7  8  9  7
++         7  7  8  9  8  7  8  8  7  9 11 10  9  9  8  9  9
++         7  9  9  8  9  9  8  9  9 10  8  7  9  8  9 10  9
%c M  cc GPS ccc cccc cccc cccc cccc ccccc ccccc ccccc ccccc
%c cc cc ccc ccc cccc cccc cccc cccc ccccc ccccc ccccc ccccc
%f  0.0000000  0.000000000  0.00000000000  0.000000000000000
%f  0.0000000  0.000000000  0.00000000000  0.000000000000000
%i    0    0    0    0      0      0      0      0         0
%i    0    0    0    0      0      0      0      0         0
/* IAC                                ULTRA-RAPID PREDICTION
/* S/V CLOCKS ARE ALIGNED TO GNSS TIME                      
/* G:C1WC2W R:C1PC2P E:C1XC5X C:C2IC6I J:C1CC2S             
/* PCV:IGS20_2247 OL/AL:FES2004  NONE     YN ORB:CoN CLK:CoN
*  2023 02 27  7  0  0.00000000
PC06  -8456.992176  39998.978224  -9694.378564   -193.259208
PC07  -6587.216208  26773.782434  31951.634176     54.202193
PC08 -19579.120507  27692.086836 -25157.983511    523.385829
PC09  -3371.826437  41728.462710      0.888282    841.754950
PC10   1626.941666  29239.967825  30749.346383      2.323886
PC11 -12962.640200  12035.340091  21655.652730    -97.461136
PC12 -15485.741812  -8766.698200  21534.470723    476.284780
PC13 -13299.035700  28448.138532 -28102.076806    217.524499
PC14 -20367.522514   5463.506371 -18227.096421    528.253849
PC16  -9137.080834  39312.072561 -11436.575299    152.032690
PC19  11891.428030 -11737.760666  22384.203097   -894.772302
PC20  24897.373575    501.865337  12641.889365    704.602499
PC21 -23803.356489 -13447.430920   5557.539243   -909.553413
PC22  -8591.291032 -17820.884155  19675.209735   -611.876576
PC23  -3221.059638  20113.177286  19072.257648   -881.721479
PC24 -23806.755093   7192.116078 -12707.226142   -358.894267
PC25 -18220.924424  20404.203100   5560.620078     78.948903
PC26 -15518.083834  -7600.368668 -21937.357898    -84.600406
PC27  14079.565087  17398.558708 -16675.347793    102.924504
PC28   4930.050396  27416.630418  -1643.910342     75.156526
PC29   7409.006527 -21696.353815 -15920.002809     86.621714
PC30  15772.239242  -2441.297496 -22897.458130      1.039725
PC32  23912.073362  13269.560579  -5567.800291   -611.707799
PC33 -11891.290594  11778.269634 -22317.705827   -871.540955
PC34 -15551.791181   3828.664115  22840.577178    115.234526
PC35  -5184.366954 -27440.045810    525.785695    673.464894
PC36  19110.642486 -19723.897356  -4908.812572   -598.013722
PC37  14157.362853   9164.123675  22235.080094   -812.286097
PC38 -25537.576649  28859.651119 -17221.085753     61.554720
PC39 -11239.747880  36162.811561 -18261.473219     -1.967007
PC40 -10056.061934  20857.972189  35228.298670    -16.180401
PC41   8038.591421  17762.287744 -19910.549322   -661.242607
PC42 -25365.618414  -1429.545207 -11471.922307   -814.394179
PC43  -8032.498593  21069.112669  16415.240366      9.229419
PC44 -14732.332638 -17095.022594  16427.455955     28.265598
PC45   2841.565228 -19873.909994 -19380.660411    -65.671932
PC46  23966.320207  -8655.507811  11321.393592    -36.277119
PE01 -20004.396438  13979.352982  16751.482056   -599.675178
PE02  19558.820590 -14171.020644 -17106.943290     23.270526
PE03   7782.169729 -16671.561530  23185.885130   -654.093683
PE04   9109.069265  25595.942525 -11738.118534    -67.226470
PE05  20487.621477   2280.028433  21246.964531    -91.384752
PE07 -20994.044176 -19724.695640  -6787.473213    -26.019312
PE08  -9062.949522 -25516.378276  11949.255185    -42.792296
PE09  20954.728498  19830.113785   6651.368913   -850.706824
PE10   4764.107269  21619.419957 -19649.903802   -515.362424
PE11  11866.646086  12252.990372 -24192.944395   1048.315286
PE12  -2398.923416  26731.632007 -12454.509338   -437.680944
PE14  23356.389048   3521.532721 -21922.932306    153.858017
PE15   2641.047393 -26858.595459  12182.343080     -3.934011
PE18 -14501.968568   5748.810414  18476.613420   -343.000561
PE19  -9897.651596  14397.584107 -23884.231938  -3133.917890
PE21 -29292.544984   4207.553819    830.667848   -514.538926
PE24  22028.988836   9393.691264  17358.716810  -1136.891291
PE25  29318.253499  -4000.962674   -526.884095   -600.249722
PE26 -18679.300183   8933.591635  21158.181401     30.463758
PE27 -22713.666729  -8809.388291 -16828.244411   -522.284502
PE30  -2034.121958 -16674.795740 -24388.189836  -1275.789812
PE31   2806.937946  16513.422346  24404.264414   -517.148771
PE33 -14924.972645  24637.863211   6784.504523   -450.849199
PE34  14807.372748 -24761.707975  -6617.841280    -32.231684
PE36  18455.531269  -8177.239137 -21648.570130    -18.556544
PG01 -14116.723494  21837.449315   4057.771722    208.070799
PG02  10345.000839 -24550.836231   -951.270524   -618.020037
PG03 -16095.198334  12600.803048 -17018.411886   -357.793037
PG04  -5915.177134  16599.392304 -19830.138352    -18.547084
PG05  25877.501244  -5232.512381   3272.716966   -117.493574
PG06   9846.933910  11945.862680 -21497.624162    576.756699
PG07  -4745.580097  24376.248823   9125.867634    233.219132
PG08 -14643.459449   5350.650150  21481.910236   -110.479025
PG09   4494.380971  22608.191674 -13228.431338   -210.517252
PG10 -15159.036799 -11619.269424  18763.303284    -26.442771
PG11  17084.792693  -1917.537597 -20226.117561   -115.538982
PG12  18393.846971 -10973.646571 -15923.574239   -345.314111
PG13  16926.132551   3277.981235  20083.667954    482.604841
PG14  12067.175594  13521.043111  19464.726084    -17.154361
PG15  13965.733799  -7603.726330  20848.555977     17.052257
PG16 -26776.201799    204.991398   1077.912832   -518.142073
PG17  12716.593885  23244.063105   1149.583315    702.527127
PG18   2645.102877 -23369.119430  12204.112543   -157.891407
PG19  17063.620347  18201.768671  -9728.192385    283.200583
PG20  25273.683929   -276.174122  -7780.521815    448.172049
PG21 -16273.007926  15972.669166  13465.750641    154.185005
PG22 -17930.296907 -15630.178108 -11549.494728    435.258217
PG23  -2367.595183 -14797.876192  21935.386584      8.014555
PG24  14535.518255 -20099.899983   8540.539311    -90.862285
PG25   8006.684948 -15221.548805 -20484.093932    423.525661
PG26 -23320.441641  -5696.981001 -11840.582283    241.777129
PG27 -18913.078743  -6615.331405  17405.220106     92.724728
PG28  -9539.406390 -13859.677927 -20583.566519     27.569341
PG29    -20.469053 -21438.261874 -15674.734431   -588.300444
PG30   5374.102676  18795.162323  17960.020716   -528.867064
PG31 -12000.691094 -10058.344905 -21579.556207   -210.337784
PG32 -15960.973136 -21293.690547  -1614.654635   -408.515608
PJ02 -31299.151614  23760.455206  20294.750859     -1.027436
PJ03 -28462.003802  26424.349826  21516.145880      0.514968
PJ04 -27672.216631  20557.194981 -19180.404913     94.211327
PR01 -22373.688152  -8093.679391  -9176.103718     23.803926
PR02 -12414.233145   4242.809878 -21840.960054    -23.218786
PR03   4202.711715  14166.990903 -20725.553324     73.237349
PR04  18091.467861  15981.558668  -8191.808500    177.383955
PR05  22083.494462   9201.276047   8830.776320    108.414366
PR07  -5005.269413 -14515.359457  20428.544649     50.726572
PR08 -18223.171998 -15943.593278   8135.282545    -69.637296
PR09  20952.011496 -14086.712781  -3897.250414    106.341357
PR11  -7537.523811  -8262.520125 -22919.261639    -10.290436
PR12 -21314.639039   4255.385209 -13349.387075     25.293502
PR13 -21710.684910  13223.729864   2121.566665    -32.469677
PR14  -8710.931222  15086.296387  18631.020731     24.361814
PR15   8612.438022   7776.293529  22727.673361     90.792117
PR16  21101.388888  -4263.196909  13707.969864     11.755081
PR17  -1966.390354  25363.059357   2102.036516    608.401564
PR18   5289.950015  20601.234987 -14019.258542     68.877953
PR19   9522.939667   6979.547427 -22608.127638   -223.393734
PR20   9332.108793 -15157.553194 -18283.371440    -88.445770
PR21   1338.932000 -25461.485145   -353.540882   -376.461903
PR22  -5184.863204 -20270.196721  14633.588151     72.707071
PR24  -9068.148637  15947.545855  17744.922193    149.833999
PR25   3313.704792 -25174.408416  -2356.134238     56.260590
EOF
